[{"OBJECT_NAME":"COSMOS 2550","OBJECT_ID":"2021-056A","EPOCH":"2026-03-08T11:22:34.326624","MEAN_MOTION":15.33829151,"ECCENTRICITY":0.00083692,"INCLINATION":67.1451,"RA_OF_ASC_NODE":44.6088,"ARG_OF_PERICENTER":269.6014,"MEAN_ANOMALY":90.4182,"EPHEMERIS_TYPE":0,"CLASSIFICATION_TYPE":"U","NORAD_CAT_ID":48865,"ELEMENT_SET_NO":999,"REV_AT_EPOCH":26327,"BSTAR":-1.3338e-8,"MEAN_MOTION_DOT":-1.92e-6,"MEAN_MOTION_DDOT":0},{"OBJECT_NAME":"STARLINK-35616","OBJECT_ID":"2025-245X","EPOCH":"2026-03-09T19:35:23.730432","MEAN_MOTION":15.30212716,"ECCENTRICITY":0.00014161,"INCLINATION":53.1574,"RA_OF_ASC_NODE":283.4641,"ARG_OF_PERICENTER":133.3081,"MEAN_ANOMALY":226.8038,"EPHEMERIS_TYPE":0,"CLASSIFICATION_TYPE":"U","NORAD_CAT_ID":66255,"ELEMENT_SET_NO":999,"REV_AT_EPOCH":2127,"BSTAR":0.00087700546,"MEAN_MOTION_DOT":0.00025715,"MEAN_MOTION_DDOT":0}]
